{"type": "FeatureCollection", "features": [ {"type": "Feature", "properties": {"norad_id": 42987, "name": "SKYSAT-C11", "group": "resource", "lat": -12.59612095701677, "lon": -45.399909220040755, "alt_km": 427.4595326102017, "timestamp": "2025-12-24T11:32:59.661441+00:00", "meta": {"OBJECT_NAME": "SKYSAT-C11", "OBJECT_ID": "2017-068A", "EPOCH": "2025-12-24T02:57:47.724192", "MEAN_MOTION": 15.47923844, "ECCENTRICITY": 0.0001148, "INCLINATION": 97.4151, "RA_OF_ASC_NODE": 135.9009, "ARG_OF_PERICENTER": 96.1987, "MEAN_ANOMALY": 263.9394, "EPHEMERIS_TYPE": 0, "CLASSIFICATION_TYPE": "U", "NORAD_CAT_ID": 42987, "ELEMENT_SET_NO": 999, "REV_AT_EPOCH": 45607, "BSTAR": 0.00046786, "MEAN_MOTION_DOT": 0.00024334, "MEAN_MOTION_DDOT": 0}, "tle": {"line1": "1 42987U 17068A   25358.12346903  .00024334  00000+0  46786-3 0  9992", "line2": "2 42987  97.4151 135.9009 0001148  96.1987 263.9394 15.47923844456075"}}, "geometry": {"type": "Point", "coordinates": [-45.399909220040755, -12.59612095701677]}}, {"type": "Feature", "properties": {"norad_id": 42988, "name": "SKYSAT-C10", "group": "resource", "lat": -21.34969047785403, "lon": 132.28953392378318, "alt_km": 474.49181695099105, "timestamp": "2025-12-24T11:32:59.661452+00:00", "meta": {"OBJECT_NAME": "SKYSAT-C10", "OBJECT_ID": "2017-068B", "EPOCH": "2025-12-23T21:32:17.126016", "MEAN_MOTION": 15.32289982, "ECCENTRICITY": 0.0005313, "INCLINATION": 97.4271, "RA_OF_ASC_NODE": 128.7811, "ARG_OF_PERICENTER": 72.934, "MEAN_ANOMALY": 287.2483, "EPHEMERIS_TYPE": 0, "CLASSIFICATION_TYPE": "U", "NORAD_CAT_ID": 42988, "ELEMENT_SET_NO": 999, "REV_AT_EPOCH": 45550, "BSTAR": 0.00034377, "MEAN_MOTION_DOT": 0.00010647, "MEAN_MOTION_DDOT": 0}, "tle": {"line1": "1 42988U 17068B   25357.89742044  .00010647  00000+0  34377-3 0  9997", "line2": "2 42988  97.4271 128.7811 0005313  72.9340 287.2483 15.32289982455500"}}, "geometry": {"type": "Point", "coordinates": [132.28953392378318, -21.34969047785403]}}, {"type": "Feature", "properties": {"norad_id": 42989, "name": "SKYSAT-C9", "group": "resource", "lat": -4.717920898816974, "lon": 129.4460002042622, "alt_km": 456.5627428145617, "timestamp": "2025-12-24T11:32:59.661462+00:00", "meta": {"OBJECT_NAME": "SKYSAT-C9", "OBJECT_ID": "2017-068C", "EPOCH": "2025-12-23T21:30:06.973056", "MEAN_MOTION": 15.36320631, "ECCENTRICITY": 0.0010311, "INCLINATION": 97.4198, "RA_OF_ASC_NODE": 128.2396, "ARG_OF_PERICENTER": 51.962, "MEAN_ANOMALY": 308.2553, "EPHEMERIS_TYPE": 0, "CLASSIFICATION_TYPE": "U", "NORAD_CAT_ID": 42989, "ELEMENT_SET_NO": 999, "REV_AT_EPOCH": 45579, "BSTAR": 0.00035835, "MEAN_MOTION_DOT": 0.00012636, "MEAN_MOTION_DDOT": 0}, "tle": {"line1": "1 42989U 17068C   25357.89591404  .00012636  00000+0  35835-3 0  9990", "line2": "2 42989  97.4198 128.2396 0010311  51.9620 308.2553 15.36320631455798"}}, "geometry": {"type": "Point", "coordinates": [129.4460002042622, -4.717920898816974]}}, {"type": "Feature", "properties": {"norad_id": 42990, "name": "SKYSAT-C8", "group": "resource", "lat": -13.410621494704916, "lon": -53.248176296140535, "alt_km": 470.94382700091774, "timestamp": "2025-12-24T11:32:59.661473+00:00", "meta": {"OBJECT_NAME": "SKYSAT-C8", "OBJECT_ID": "2017-068D", "EPOCH": "2025-12-24T02:52:36.615072", "MEAN_MOTION": 15.33162187, "ECCENTRICITY": 9.63e-05, "INCLINATION": 97.429, "RA_OF_ASC_NODE": 128.1716, "ARG_OF_PERICENTER": 277.277, "MEAN_ANOMALY": 82.8363, "EPHEMERIS_TYPE": 0, "CLASSIFICATION_TYPE": "U", "NORAD_CAT_ID": 42990, "ELEMENT_SET_NO": 999, "REV_AT_EPOCH": 45545, "BSTAR": 0.00037304, "MEAN_MOTION_DOT": 0.00011878, "MEAN_MOTION_DDOT": 0}, "tle": {"line1": "1 42990U 17068D   25358.11986823  .00011878  00000+0  37304-3 0  9991", "line2": "2 42990  97.4290 128.1716 0000963 277.2770  82.8363 15.33162187455453"}}, "geometry": {"type": "Point", "coordinates": [-53.248176296140535, -13.410621494704916]}}, {"type": "Feature", "properties": {"norad_id": 42991, "name": "SKYSAT-C7", "group": "resource", "lat": 23.23431356117147, "lon": 126.35449104932223, "alt_km": 463.05898573564264, "timestamp": "2025-12-24T11:32:59.661484+00:00", "meta": {"OBJECT_NAME": "SKYSAT-C7", "OBJECT_ID": "2017-068E", "EPOCH": "2025-12-23T07:14:29.889312", "MEAN_MOTION": 15.3253985, "ECCENTRICITY": 0.00069531, "INCLINATION": 97.4294, "RA_OF_ASC_NODE": 128.382, "ARG_OF_PERICENTER": 23.9073, "MEAN_ANOMALY": 336.249, "EPHEMERIS_TYPE": 0, "CLASSIFICATION_TYPE": "U", "NORAD_CAT_ID": 42991, "ELEMENT_SET_NO": 999, "REV_AT_EPOCH": 45539, "BSTAR": 0.00037351133, "MEAN_MOTION_DOT": 0.00011671, "MEAN_MOTION_DDOT": 0}, "tle": {"line1": "1 42991U 17068E   25357.30173483  .00011671  00000+0  37351-3 0  9995", "line2": "2 42991  97.4294 128.3820 0006953  23.9073 336.2490 15.32539850455397"}}, "geometry": {"type": "Point", "coordinates": [126.35449104932223, 23.23431356117147]}}, {"type": "Feature", "properties": {"norad_id": 42992, "name": "SKYSAT-C6", "group": "resource", "lat": 73.24232457350664, "lon": -24.310495273033155, "alt_km": 461.7657366504618, "timestamp": "2025-12-24T11:32:59.661494+00:00", "meta": {"OBJECT_NAME": "SKYSAT-C6", "OBJECT_ID": "2017-068F", "EPOCH": "2025-12-23T22:33:01.268064", "MEAN_MOTION": 15.31710271, "ECCENTRICITY": 0.0004828, "INCLINATION": 97.4329, "RA_OF_ASC_NODE": 129.4519, "ARG_OF_PERICENTER": 52.1557, "MEAN_ANOMALY": 308.012, "EPHEMERIS_TYPE": 0, "CLASSIFICATION_TYPE": "U", "NORAD_CAT_ID": 42992, "ELEMENT_SET_NO": 999, "REV_AT_EPOCH": 45547, "BSTAR": 0.00035192, "MEAN_MOTION_DOT": 0.00010704, "MEAN_MOTION_DDOT": 0}, "tle": {"line1": "1 42992U 17068F   25357.93959801  .00010704  00000+0  35192-3 0  9998", "line2": "2 42992  97.4329 129.4519 0004828  52.1557 308.0120 15.31710271455477"}}, "geometry": {"type": "Point", "coordinates": [-24.310495273033155, 73.24232457350664]}}, {"type": "Feature", "properties": {"norad_id": 43111, "name": "CARTOSAT-2F", "group": "resource", "lat": 49.39037589706519, "lon": 47.172818695698126, "alt_km": 503.1745690996313, "timestamp": "2025-12-24T11:32:59.661506+00:00", "meta": {"OBJECT_NAME": "CARTOSAT-2F", "OBJECT_ID": "2018-004A", "EPOCH": "2025-12-24T03:25:37.137216", "MEAN_MOTION": 15.19230053, "ECCENTRICITY": 0.0001646, "INCLINATION": 97.43, "RA_OF_ASC_NODE": 55.5947, "ARG_OF_PERICENTER": 112.0315, "MEAN_ANOMALY": 248.1094, "EPHEMERIS_TYPE": 0, "CLASSIFICATION_TYPE": "U", "NORAD_CAT_ID": 43111, "ELEMENT_SET_NO": 999, "REV_AT_EPOCH": 44075, "BSTAR": 0.00018566, "MEAN_MOTION_DOT": 3.843e-05, "MEAN_MOTION_DDOT": 0}, "tle": {"line1": "1 43111U 18004A   25358.14279094  .00003843  00000+0  18566-3 0  9998", "line2": "2 43111  97.4300  55.5947 0001646 112.0315 248.1094 15.19230053440757"}}, "geometry": {"type": "Point", "coordinates": [47.172818695698126, 49.39037589706519]}}, {"type": "Feature", "properties": {"norad_id": 43259, "name": "GAOFEN-1 02", "group": "resource", "lat": 10.278701413668417, "lon": -122.24997278563468, "alt_km": 640.3930225447057, "timestamp": "2025-12-24T11:32:59.661516+00:00", "meta": {"OBJECT_NAME": "GAOFEN-1 02", "OBJECT_ID": "2018-031A", "EPOCH": "2025-12-24T04:16:42.824352", "MEAN_MOTION": 14.76436416, "ECCENTRICITY": 0.0002539, "INCLINATION": 98.0789, "RA_OF_ASC_NODE": 55.971, "ARG_OF_PERICENTER": 174.7603, "MEAN_ANOMALY": 185.3633, "EPHEMERIS_TYPE": 0, "CLASSIFICATION_TYPE": "U", "NORAD_CAT_ID": 43259, "ELEMENT_SET_NO": 999, "REV_AT_EPOCH": 41687, "BSTAR": 9.8536e-05, "MEAN_MOTION_DOT": 6.33e-06, "MEAN_MOTION_DDOT": 0}, "tle": {"line1": "1 43259U 18031A   25358.17827343  .00000633  00000+0  98536-4 0  9990", "line2": "2 43259  98.0789  55.9710 0002539 174.7603 185.3633 14.76436416416877"}}, "geometry": {"type": "Point", "coordinates": [-122.24997278563468, 10.278701413668417]}}, {"type": "Feature", "properties": {"norad_id": 43260, "name": "GAOFEN-1 03", "group": "resource", "lat": -72.50586511209683, "lon": 82.93312114664191, "alt_km": 646.7404652434843, "timestamp": "2025-12-24T11:32:59.661526+00:00", "meta": {"OBJECT_NAME": "GAOFEN-1 03", "OBJECT_ID": "2018-031B", "EPOCH": "2025-12-24T05:22:50.032416", "MEAN_MOTION": 14.76459385, "ECCENTRICITY": 0.0001716, "INCLINATION": 98.0782, "RA_OF_ASC_NODE": 55.8928, "ARG_OF_PERICENTER": 260.2269, "MEAN_ANOMALY": 99.8747, "EPHEMERIS_TYPE": 0, "CLASSIFICATION_TYPE": "U", "NORAD_CAT_ID": 43260, "ELEMENT_SET_NO": 999, "REV_AT_EPOCH": 41687, "BSTAR": 0.00013611, "MEAN_MOTION_DOT": 8.95e-06, "MEAN_MOTION_DDOT": 0}, "tle": {"line1": "1 43260U 18031B   25358.22419019  .00000895  00000+0  13611-3 0  9995", "line2": "2 43260  98.0782  55.8928 0001716 260.2269  99.8747 14.76459385416872"}}, "geometry": {"type": "Point", "coordinates": [82.93312114664191, -72.50586511209683]}}, {"type": "Feature", "properties": {"norad_id": 43262, "name": "GAOFEN-1 04", "group": "resource", "lat": 53.802222170725706, "lon": 45.12869118836729, "alt_km": 635.1690814879385, "timestamp": "2025-12-24T11:32:59.661537+00:00", "meta": {"OBJECT_NAME": "GAOFEN-1 04", "OBJECT_ID": "2018-031D", "EPOCH": "2025-12-24T04:47:50.682624", "MEAN_MOTION": 14.76429315, "ECCENTRICITY": 5.45e-05, "INCLINATION": 98.079, "RA_OF_ASC_NODE": 56.039, "ARG_OF_PERICENTER": 61.667, "MEAN_ANOMALY": 298.4594, "EPHEMERIS_TYPE": 0, "CLASSIFICATION_TYPE": "U", "NORAD_CAT_ID": 43262, "ELEMENT_SET_NO": 999, "REV_AT_EPOCH": 41686, "BSTAR": 0.00018942, "MEAN_MOTION_DOT": 1.265e-05, "MEAN_MOTION_DDOT": 0}, "tle": {"line1": "1 43262U 18031D   25358.19989216  .00001265  00000+0  18942-3 0  9998", "line2": "2 43262  98.0790  56.0390 0000545  61.6670 298.4594 14.76429315416863"}}, "geometry": {"type": "Point", "coordinates": [45.12869118836729, 53.802222170725706]}}]}